{"type": "FeatureCollection", "features": [ {"type": "Feature", "properties": {"norad_id": 37216, "name": "COSMO-SKYMED 4", "group": "resource", "lat": 52.29819973862248, "lon": 6.224695021547866, "alt_km": 616.9531459146519, "timestamp": "2025-12-20T16:47:35.948234+00:00", "meta": {"OBJECT_NAME": "COSMO-SKYMED 4", "OBJECT_ID": "2010-060A", "EPOCH": "2025-12-20T12:58:56.073792", "MEAN_MOTION": 14.82154722, "ECCENTRICITY": 0.0001396, "INCLINATION": 97.8799, "RA_OF_ASC_NODE": 175.7462, "ARG_OF_PERICENTER": 84.6069, "MEAN_ANOMALY": 275.5303, "EPHEMERIS_TYPE": 0, "CLASSIFICATION_TYPE": "U", "NORAD_CAT_ID": 37216, "ELEMENT_SET_NO": 999, "REV_AT_EPOCH": 81810, "BSTAR": 0.00010343, "MEAN_MOTION_DOT": 7.71e-06, "MEAN_MOTION_DDOT": 0}, "tle": {"line1": "1 37216U 10060A   25354.54092678  .00000771  00000+0  10343-3 0  9994", "line2": "2 37216  97.8799 175.7462 0001396  84.6069 275.5303 14.82154722818103"}}, "geometry": {"type": "Point", "coordinates": [6.224695021547866, 52.29819973862248]}}, {"type": "Feature", "properties": {"norad_id": 37387, "name": "RESOURCESAT-2", "group": "resource", "lat": 19.96016150355137, "lon": -118.5644317870817, "alt_km": 823.2218836610355, "timestamp": "2025-12-20T16:47:35.948245+00:00", "meta": {"OBJECT_NAME": "RESOURCESAT-2", "OBJECT_ID": "2011-015A", "EPOCH": "2025-12-20T10:58:38.510688", "MEAN_MOTION": 14.21600119, "ECCENTRICITY": 0.0006068, "INCLINATION": 98.7867, "RA_OF_ASC_NODE": 57.9742, "ARG_OF_PERICENTER": 21.8753, "MEAN_ANOMALY": 338.2682, "EPHEMERIS_TYPE": 0, "CLASSIFICATION_TYPE": "U", "NORAD_CAT_ID": 37387, "ELEMENT_SET_NO": 999, "REV_AT_EPOCH": 76078, "BSTAR": 6.7141e-05, "MEAN_MOTION_DOT": 1.03e-06, "MEAN_MOTION_DDOT": 0}, "tle": {"line1": "1 37387U 11015A   25354.45739017  .00000103  00000+0  67141-4 0  9997", "line2": "2 37387  98.7867  57.9742 0006068  21.8753 338.2682 14.21600119760780"}}, "geometry": {"type": "Point", "coordinates": [-118.5644317870817, 19.96016150355137]}}, {"type": "Feature", "properties": {"norad_id": 37781, "name": "HAIYANG-2A", "group": "resource", "lat": 62.455958794183836, "lon": -22.876217172192767, "alt_km": 960.6759572844167, "timestamp": "2025-12-20T16:47:35.948255+00:00", "meta": {"OBJECT_NAME": "HAIYANG-2A", "OBJECT_ID": "2011-043A", "EPOCH": "2025-12-20T13:00:04.375584", "MEAN_MOTION": 13.78836762, "ECCENTRICITY": 0.0001636, "INCLINATION": 99.337, "RA_OF_ASC_NODE": 355.3561, "ARG_OF_PERICENTER": 72.2698, "MEAN_ANOMALY": 287.8632, "EPHEMERIS_TYPE": 0, "CLASSIFICATION_TYPE": "U", "NORAD_CAT_ID": 37781, "ELEMENT_SET_NO": 999, "REV_AT_EPOCH": 72206, "BSTAR": 0.00022902, "MEAN_MOTION_DOT": 1.89e-06, "MEAN_MOTION_DDOT": 0}, "tle": {"line1": "1 37781U 11043A   25354.54171731  .00000189  00000+0  22902-3 0  9998", "line2": "2 37781  99.3370 355.3561 0001636  72.2698 287.8632 13.78836762722061"}}, "geometry": {"type": "Point", "coordinates": [-22.876217172192767, 62.455958794183836]}}, {"type": "Feature", "properties": {"norad_id": 37791, "name": "RASAT", "group": "resource", "lat": -28.97645222374989, "lon": -100.6638589702239, "alt_km": 688.4779346548094, "timestamp": "2025-12-20T16:47:35.948265+00:00", "meta": {"OBJECT_NAME": "RASAT", "OBJECT_ID": "2011-044D", "EPOCH": "2025-12-20T13:08:20.503392", "MEAN_MOTION": 14.67919843, "ECCENTRICITY": 0.0021557, "INCLINATION": 98.0652, "RA_OF_ASC_NODE": 83.6898, "ARG_OF_PERICENTER": 41.4801, "MEAN_ANOMALY": 83.505, "EPHEMERIS_TYPE": 0, "CLASSIFICATION_TYPE": "U", "NORAD_CAT_ID": 37791, "ELEMENT_SET_NO": 999, "REV_AT_EPOCH": 76697, "BSTAR": 9.6302e-05, "MEAN_MOTION_DOT": 5.04e-06, "MEAN_MOTION_DDOT": 0}, "tle": {"line1": "1 37791U 11044D   25354.54745953  .00000504  00000+0  96302-4 0  9990", "line2": "2 37791  98.0652  83.6898 0021557  41.4801  83.5050 14.67919843766977"}}, "geometry": {"type": "Point", "coordinates": [-100.6638589702239, -28.97645222374989]}}, {"type": "Feature", "properties": {"norad_id": 37841, "name": "SRMSAT", "group": "resource", "lat": -18.70172089128411, "lon": -8.97972541214582, "alt_km": 857.020635362529, "timestamp": "2025-12-20T16:47:35.948276+00:00", "meta": {"OBJECT_NAME": "SRMSAT", "OBJECT_ID": "2011-058D", "EPOCH": "2025-12-20T12:38:09.085056", "MEAN_MOTION": 14.11513957, "ECCENTRICITY": 0.0011946, "INCLINATION": 19.9724, "RA_OF_ASC_NODE": 60.8238, "ARG_OF_PERICENTER": 39.0399, "MEAN_ANOMALY": 89.0233, "EPHEMERIS_TYPE": 0, "CLASSIFICATION_TYPE": "U", "NORAD_CAT_ID": 37841, "ELEMENT_SET_NO": 999, "REV_AT_EPOCH": 73254, "BSTAR": 6.6766e-05, "MEAN_MOTION_DOT": 3.88e-06, "MEAN_MOTION_DDOT": 0}, "tle": {"line1": "1 37841U 11058D   25354.52649404  .00000388  00000+0  66766-4 0  9994", "line2": "2 37841  19.9724  60.8238 0011946  39.0399  89.0233 14.11513957732541"}}, "geometry": {"type": "Point", "coordinates": [-8.97972541214582, -18.70172089128411]}}, {"type": "Feature", "properties": {"norad_id": 38012, "name": "PLEIADES 1A", "group": "resource", "lat": 79.37150054753268, "lon": -62.59421295161221, "alt_km": 689.6705305099913, "timestamp": "2025-12-20T16:47:35.948286+00:00", "meta": {"OBJECT_NAME": "PLEIADES 1A", "OBJECT_ID": "2011-076F", "EPOCH": "2025-12-20T11:59:03.440832", "MEAN_MOTION": 14.58568789, "ECCENTRICITY": 0.0001163, "INCLINATION": 98.1823, "RA_OF_ASC_NODE": 67.1486, "ARG_OF_PERICENTER": 74.2213, "MEAN_ANOMALY": 51.0394, "EPHEMERIS_TYPE": 0, "CLASSIFICATION_TYPE": "U", "NORAD_CAT_ID": 38012, "ELEMENT_SET_NO": 999, "REV_AT_EPOCH": 74594, "BSTAR": 0.00012768, "MEAN_MOTION_DOT": 5.48e-06, "MEAN_MOTION_DDOT": 0}, "tle": {"line1": "1 38012U 11076F   25354.49934538  .00000548  00000+0  12768-3 0  9996", "line2": "2 38012  98.1823  67.1486 0001163  74.2213  51.0394 14.58568789745941"}}, "geometry": {"type": "Point", "coordinates": [-62.59421295161221, 79.37150054753268]}}, {"type": "Feature", "properties": {"norad_id": 38038, "name": "ZIYUAN 1-02C (ZY 1-02C)", "group": "resource", "lat": 42.60338013147532, "lon": -111.5914054404662, "alt_km": 756.4994810853141, "timestamp": "2025-12-20T16:47:35.948296+00:00", "meta": {"OBJECT_NAME": "ZIYUAN 1-02C (ZY 1-02C)", "OBJECT_ID": "2011-079A", "EPOCH": "2025-12-20T13:27:07.682112", "MEAN_MOTION": 14.38020856, "ECCENTRICITY": 0.0007445, "INCLINATION": 98.4331, "RA_OF_ASC_NODE": 60.4304, "ARG_OF_PERICENTER": 117.7858, "MEAN_ANOMALY": 18.6348, "EPHEMERIS_TYPE": 0, "CLASSIFICATION_TYPE": "U", "NORAD_CAT_ID": 38038, "ELEMENT_SET_NO": 999, "REV_AT_EPOCH": 73353, "BSTAR": 0.0001971, "MEAN_MOTION_DOT": 5.53e-06, "MEAN_MOTION_DDOT": 0}, "tle": {"line1": "1 38038U 11079A   25354.56050558  .00000553  00000+0  19710-3 0  9996", "line2": "2 38038  98.4331  60.4304 0007445 117.7858  18.6348 14.38020856733534"}}, "geometry": {"type": "Point", "coordinates": [-111.5914054404662, 42.60338013147532]}}, {"type": "Feature", "properties": {"norad_id": 38338, "name": "ARIRANG-3 (KOMPSAT-3)", "group": "resource", "lat": 80.0497307078391, "lon": -107.32034699819762, "alt_km": 682.5915620239612, "timestamp": "2025-12-20T16:47:35.948306+00:00", "meta": {"OBJECT_NAME": "ARIRANG-3 (KOMPSAT-3)", "OBJECT_ID": "2012-025B", "EPOCH": "2025-12-20T11:28:45.641856", "MEAN_MOTION": 14.61721989, "ECCENTRICITY": 0.0004893, "INCLINATION": 98.3334, "RA_OF_ASC_NODE": 309.1263, "ARG_OF_PERICENTER": 311.7979, "MEAN_ANOMALY": 48.2803, "EPHEMERIS_TYPE": 0, "CLASSIFICATION_TYPE": "U", "NORAD_CAT_ID": 38338, "ELEMENT_SET_NO": 999, "REV_AT_EPOCH": 72523, "BSTAR": 8.7551e-05, "MEAN_MOTION_DOT": 3.88e-06, "MEAN_MOTION_DDOT": 0}, "tle": {"line1": "1 38338U 12025B   25354.47830604  .00000388  00000+0  87551-4 0  9994", "line2": "2 38338  98.3334 309.1263 0004893 311.7979  48.2803 14.61721989725234"}}, "geometry": {"type": "Point", "coordinates": [-107.32034699819762, 80.0497307078391]}}, {"type": "Feature", "properties": {"norad_id": 38709, "name": "EXACTVIEW-1 (ADS-1B)", "group": "resource", "lat": 68.60461736162189, "lon": -52.98652900139326, "alt_km": 807.6499950336865, "timestamp": "2025-12-20T16:47:35.948317+00:00", "meta": {"OBJECT_NAME": "EXACTVIEW-1 (ADS-1B)", "OBJECT_ID": "2012-039C", "EPOCH": "2025-12-20T06:10:11.789760", "MEAN_MOTION": 14.24910855, "ECCENTRICITY": 0.0010296, "INCLINATION": 98.9639, "RA_OF_ASC_NODE": 102.8049, "ARG_OF_PERICENTER": 331.9735, "MEAN_ANOMALY": 28.0888, "EPHEMERIS_TYPE": 0, "CLASSIFICATION_TYPE": "U", "NORAD_CAT_ID": 38709, "ELEMENT_SET_NO": 999, "REV_AT_EPOCH": 69722, "BSTAR": 6.54e-05, "MEAN_MOTION_DOT": 1.06e-06, "MEAN_MOTION_DDOT": 0}, "tle": {"line1": "1 38709U 12039C   25354.25708090  .00000106  00000+0  65400-4 0  9997", "line2": "2 38709  98.9639 102.8049 0010296 331.9735  28.0888 14.24910855697225"}}, "geometry": {"type": "Point", "coordinates": [-52.98652900139326, 68.60461736162189]}}, {"type": "Feature", "properties": {"norad_id": 38755, "name": "SPOT 6", "group": "resource", "lat": 20.22326478308111, "lon": 56.309272949218155, "alt_km": 697.4161730348851, "timestamp": "2025-12-20T16:47:35.948327+00:00", "meta": {"OBJECT_NAME": "SPOT 6", "OBJECT_ID": "2012-047A", "EPOCH": "2025-12-20T11:45:37.893024", "MEAN_MOTION": 14.58539039, "ECCENTRICITY": 0.0001342, "INCLINATION": 98.157, "RA_OF_ASC_NODE": 59.1323, "ARG_OF_PERICENTER": 79.0419, "MEAN_ANOMALY": 281.0931, "EPHEMERIS_TYPE": 0, "CLASSIFICATION_TYPE": "U", "NORAD_CAT_ID": 38755, "ELEMENT_SET_NO": 999, "REV_AT_EPOCH": 70700, "BSTAR": 9.2937e-05, "MEAN_MOTION_DOT": 3.87e-06, "MEAN_MOTION_DDOT": 0}, "tle": {"line1": "1 38755U 12047A   25354.49002191  .00000387  00000+0  92937-4 0  9998", "line2": "2 38755  98.1570  59.1323 0001342  79.0419 281.0931 14.58539039707008"}}, "geometry": {"type": "Point", "coordinates": [56.309272949218155, 20.22326478308111]}}]}